H1 CPF  1  DLR 2021 07 24 10  7052 technosat            
H2  1704205 6203    42829 2021 07 24 00 00 00 2021 07 31 00 00 00    60 1 1  0 0 0
H9
10 0 59419  57600.000000  0       2362742.491       5055418.556      -4207618.578
10 0 59419  57660.000000  0       2331546.342       4760198.450      -4555108.927
10 0 59419  57720.000000  0       2287943.332       4445423.616      -4883435.751
10 0 59419  57780.000000  0       2231954.754       4112525.093      -5191226.304
10 0 59419  57840.000000  0       2163666.033       3763007.537      -5477194.704
10 0 59419  57900.000000  0       2083226.899       3398442.319      -5740147.043
10 0 59419  57960.000000  0       1990851.215       3020460.365      -5978986.063
10 0 59419  58020.000000  0       1886816.510       2630744.821      -6192715.401
10 0 59419  58080.000000  0       1771463.201       2231023.580      -6380443.382
10 0 59419  58140.000000  0       1645193.547       1823061.728      -6541386.401
10 0 59419  58200.000000  0       1508470.342       1408653.912      -6674871.964
10 0 59419  58260.000000  0       1361815.269        989616.566      -6780341.287
10 0 59419  58320.000000  0       1205806.941        567780.146      -6857351.448
10 0 59419  58380.000000  0       1041078.666        144981.338      -6905577.125
10 0 59419  58440.000000  0        868315.949       -276944.772      -6924811.877
10 0 59419  58500.000000  0        688253.709       -696172.445      -6914968.942
10 0 59419  58560.000000  0        501673.284      -1110892.929      -6876081.635
10 0 59419  58620.000000  0        309399.186      -1519322.018      -6808303.326
10 0 59419  58680.000000  0        112295.633      -1919707.470      -6711907.030
10 0 59419  58740.000000  0        -88737.191      -2310336.372      -6587284.667
10 0 59419  58800.000000  0       -292767.142      -2689542.469      -6434945.781
10 0 59419  58860.000000  0       -498834.297      -3055713.248      -6255515.700
10 0 59419  58920.000000  0       -705955.293      -3407296.748      -6049733.295
10 0 59419  58980.000000  0       -913127.851      -3742808.173      -5818448.357
10 0 59419  59040.000000  0      -1119335.488      -4060836.280      -5562618.537
10 0 59419  59100.000000  0      -1323552.377      -4360049.531      -5283305.817
10 0 59419  59160.000000  0      -1524748.349      -4639201.938      -4981672.495
10 0 59419  59220.000000  0      -1721894.011      -4897138.558      -4658976.721
10 0 59419  59280.000000  0      -1913965.938      -5132800.615      -4316567.581
10 0 59419  59340.000000  0      -2099951.936      -5345230.215      -3955879.741
10 0 59419  59400.000000  0      -2278856.303      -5533574.622      -3578427.684
10 0 59419  59460.000000  0      -2449705.105      -5697090.090      -3185799.555
10 0 59419  59520.000000  0      -2611551.420      -5835145.217      -2779650.623
10 0 59419  59580.000000  0      -2763480.531      -5947223.808      -2361696.388
10 0 59419  59640.000000  0      -2904615.029      -6032927.216      -1933705.328
10 0 59419  59700.000000  0      -3034119.795      -6091976.128      -1497491.340
10 0 59419  59760.000000  0      -3151206.829      -6124211.758      -1054905.873
10 0 59419  59820.000000  0      -3255139.858      -6129596.428       -607829.832
10 0 59419  59880.000000  0      -3345238.706      -6108213.525       -158165.321
10 0 59419  59940.000000  0      -3420883.416      -6060266.891        292172.746
10 0 59419  60000.000000  0      -3481518.094      -5986079.595        741265.137
10 0 59419  60060.000000  0      -3526654.443      -5886092.114       1187196.847
10 0 59419  60120.000000  0      -3555874.959      -5760859.901       1628065.659
10 0 59419  60180.000000  0      -3568835.753      -5611050.344       2061990.630
10 0 59419  60240.000000  0      -3565268.995      -5437439.190       2487120.436
10 0 59419  60300.000000  0      -3544984.983      -5240906.469       2901641.588
10 0 59419  60360.000000  0      -3507873.792      -5022431.896       3303786.455
10 0 59419  60420.000000  0      -3453906.526      -4783089.811       3691841.056
10 0 59419  60480.000000  0      -3383136.146      -4524043.671       4064152.579
10 0 59419  60540.000000  0      -3295697.871      -4246540.122       4419136.588
10 0 59419  60600.000000  0      -3191809.166      -3951902.679       4755283.839
10 0 59419  60660.000000  0      -3071769.332      -3641525.139       5071166.721
10 0 59419  60720.000000  0      -2935958.643      -3316864.693       5365445.335
10 0 59419  60780.000000  0      -2784837.064      -2979434.809       5636873.084
10 0 59419  60840.000000  0      -2618942.604      -2630797.951       5884301.833
10 0 59419  60900.000000  0      -2438889.291      -2272558.144       6106686.642
10 0 59419  60960.000000  0      -2245364.768      -1906353.424       6303090.060
10 0 59419  61020.000000  0      -2039127.515      -1533848.160       6472685.983
10 0 59419  61080.000000  0      -1821003.666      -1156725.240       6614762.939
10 0 59419  61140.000000  0      -1591883.516       -776678.285       6728726.752
10 0 59419  61200.000000  0      -1352717.792       -395403.997       6814102.661
10 0 59419  61260.000000  0      -1104513.683        -14594.643       6870537.114
10 0 59419  61320.000000  0       -848330.544        364069.483       6897799.141
10 0 59419  61380.000000  0       -585275.303        738927.521       6895781.169
10 0 59419  61440.000000  0       -316497.619       1108345.345       6864499.323
10 0 59419  61500.000000  0        -43184.824       1470722.682       6804093.246
10 0 59419  61560.000000  0        233443.371       1824500.081       6714825.432
10 0 59419  61620.000000  0        512140.360       2168165.618       6597079.982
10 0 59419  61680.000000  0        791638.243       2500261.296       6451360.943
10 0 59419  61740.000000  0       1070653.594       2819389.225       6278290.207
10 0 59419  61800.000000  0       1347893.337       3124217.533       6078604.932
10 0 59419  61860.000000  0       1622060.719       3413485.991       5853154.486
10 0 59419  61920.000000  0       1891861.364       3686011.277       5602896.925
10 0 59419  61980.000000  0       2156009.408       3940691.920       5328895.056
10 0 59419  62040.000000  0       2413233.684       4176512.868       5032311.990
10 0 59419  62100.000000  0       2662283.877       4392549.603       4714406.215
10 0 59419  62160.000000  0       2901936.555       4587971.789       4376526.314
10 0 59419  62220.000000  0       3131001.149       4762046.539       4020105.339
10 0 59419  62280.000000  0       3348325.845       4914141.248       3646654.884
10 0 59419  62340.000000  0       3552803.480       5043726.108       3257758.789
10 0 59419  62400.000000  0       3743377.347       5150376.134       2855066.271
10 0 59419  62460.000000  0       3919046.635       5233772.408       2440284.612
10 0 59419  62520.000000  0       4078871.450       5293702.774       2015171.878
10 0 59419  62580.000000  0       4221977.716       5330062.223       1581529.506
10 0 59419  62640.000000  0       4347561.921       5342852.904       1141194.610
10 0 59419  62700.000000  0       4454895.503       5332183.518        696031.877
10 0 59419  62760.000000  0       4543328.752       5298268.037        247925.412
10 0 59419  62820.000000  0       4612294.375       5241423.926       -201229.365
10 0 59419  62880.000000  0       4661310.726       5162069.928       -649533.839
10 0 59419  62940.000000  0       4689984.631       5060723.392      -1095094.355
10 0 59419  63000.000000  0       4698013.775       4937997.161      -1536030.335
10 0 59419  63060.000000  0       4685188.643       4794596.012      -1970482.306
10 0 59419  63120.000000  0       4651394.035       4631312.692      -2396619.817
10 0 59419  63180.000000  0       4596610.130       4449023.556      -2812649.189
10 0 59419  63240.000000  0       4520913.070       4248683.850      -3216821.091
10 0 59419  63300.000000  0       4424475.045       4031322.639      -3607437.855
10 0 59419  63360.000000  0       4307563.942       3798037.449      -3982860.454
10 0 59419  63420.000000  0       4170542.625       3549988.679      -4341515.218
10 0 59419  63480.000000  0       4013867.741       3288393.761      -4681900.258
10 0 59419  63540.000000  0       3838088.105       3014521.131      -5002591.526
10 0 59419  63600.000000  0       3643842.672       2729684.065      -5302248.533
10 0 59419  63660.000000  0       3431858.069       2435234.352      -5579619.678
10 0 59419  63720.000000  0       3202945.776       2132555.889      -5833547.141
10 0 59419  63780.000000  0       2957998.934       1823058.198      -6062971.411
10 0 59419  63840.000000  0       2697988.766       1508169.921      -6266935.361
10 0 59419  63900.000000  0       2423960.697       1189332.330      -6444587.896
10 0 59419  63960.000000  0       2137030.166        867992.864      -6595187.175
10 0 59419  64020.000000  0       1838378.179        545598.733      -6718103.414
10 0 59419  64080.000000  0       1529246.613        223590.597      -6812821.370
10 0 59419  64140.000000  0       1210933.119        -96603.731      -6878942.452
10 0 59419  64200.000000  0        884785.728       -413575.507      -6916186.231
10 0 59419  64260.000000  0        552197.306       -725941.072      -6924391.480
10 0 59419  64320.000000  0        214599.824      -1032347.698      -6903516.854
10 0 59419  64380.000000  0       -126541.582      -1331479.269      -6853641.145
10 0 59419  64440.000000  0       -469734.743      -1622061.766      -6774963.170
10 0 59419  64500.000000  0       -813466.821      -1902868.614      -6667801.234
10 0 59419  64560.000000  0      -1156210.820      -2172725.829      -6532592.088
10 0 59419  64620.000000  0      -1496432.206      -2430516.926      -6369889.399
10 0 59419  64680.000000  0      -1832595.600      -2675187.511      -6180361.797
10 0 59419  64740.000000  0      -2163171.567      -2905749.627      -5964790.529
99
